ZHONGXING-19            
1 54230U 22148A   26198.61697670  .00000000  00000+0  00000+0 0  9997
2 54230   0.0224  66.5922 0003187  68.2949 185.8507  1.00269997 13686
GALAXY 31 (G-31)        
1 54243U 22153A   26198.60038073  .00000004  00000+0  00000+0 0  9996
2 54243   0.0182  92.8327 0001082  26.6125 271.0865  1.00271946  7438
GALAXY 32 (G-32)        
1 54244U 22153B   26198.60618742 -.00000184  00000+0  00000+0 0  9994
2 54244   0.0114  49.3662 0001391 356.7462  16.5326  1.00272408 13443
EUTELSAT 10B            
1 54259U 22157A   26198.55491469  .00000058  00000+0  00000+0 0  9992
2 54259   0.0610  95.5067 0001588  12.3958  37.1964  1.00266999 13338
GALAXY 35 (G-35)        
1 54741U 22170A   26198.60592742 -.00000172  00000+0  00000+0 0  9993
2 54741   0.0139  85.1291 0001859  31.1941 304.1159  1.00272222 13199
GALAXY 36 (G-36)        
1 54742U 22170B   26198.60670742 -.00000195  00000+0  00000+0 0  9996
2 54742   0.0161 139.7187 0002605 318.8231 326.2904  1.00271838 13074
METEOSAT-12 (MTG-I1)    
1 54743U 22170C   26198.62430083 -.00000018  00000+0  00000+0 0  9995
2 54743   0.7277  20.1427 0003910  81.3738  58.3177  1.00268411 13285
SHIJIAN-23 (SJ-23)      
1 55131U 23002A   26198.77155957 -.00000366  00000+0  00000+0 0  9998
2 55131   3.7942  77.9273 0003413 273.2206 349.4961  1.00075758 12811
APSTAR-6E               
1 55239U 23005A   26198.87931757  .00000000  00000+0  00000+0 0  9995
2 55239   0.0152 258.3347 0002925 289.3135 198.5944  1.00277858 18990
USA 342                 
1 55263U 23008A   26196.34785685  .00000000  00000+0  00000+0 0  9992
2 55263   0.0068  33.1422 0000237  23.5747  25.6345  1.00268904 12796
LDPE-3A                 
1 55264U 23008B   26198.64965383 -.00000275  00000+0  00000+0 0  9998
2 55264   2.4255  81.2870 0001567  74.1273 141.7981  0.99149268 12115
ELEKTRO-L 4             
1 55506U 23016A   26197.72123859 -.00000069  00000+0  00000+0 0  9999
2 55506   0.1167 278.4001 0001529 256.3747 185.2061  1.00270652 12639
AMAZONAS NEXUS          
1 55508U 23017A   26198.54096127 -.00000292  00000+0  00000+0 0  9998
2 55508   0.0358  45.2576 0004430  42.1268 341.7092  1.00269616  7345
ZHONGXING-26            
1 55686U 23023A   26198.86298954 -.00000362  00000+0  00000+0 0  9997
2 55686   0.0624  71.2578 0003676  35.8442 264.3590  1.00277827 12536
LUCH-5X (OLYMP-K 2)     
1 55841U 23031A   26198.77258358  .00000023  00000+0  00000+0 0  9996
2 55841   0.0281  94.9892 0001133 207.6590 333.0511  1.00279165 12240
GAOFEN-13 02            
1 55912U 23036A   26198.62267034 -.00000227  00000+0  00000+0 0  9992
2 55912   1.0285   4.9064 0003648 337.4064 325.5398  1.00273983 12394
SES-18                  
1 55970U 23038A   26198.60393409 -.00000110  00000+0  00000+0 0  9993
2 55970   0.0467 248.0545 0000770 313.5372 208.1402  1.00270494 12402
SES-19                  
1 55971U 23038B   26198.59760737  .00000078  00000+0  00000+0 0  9996
2 55971   0.0508 266.9573 0001594 212.6777 255.9946  1.00271188 12394
INTELSAT 40E (IS-40E)   
1 56174U 23052A   26198.60618742 -.00000184  00000+0  00000+0 0  9997
2 56174   0.0140  87.0130 0002284  56.7905 278.8436  1.00271652 12125
VIASAT-3 F1             
1 56370U 23060A   26198.60670742  .00000000  00000+0  00000+0 0  9998
2 56370   0.0125  30.8912 0000673  60.7227 333.2635  1.00270816 11736
ARCTURUS                
1 56371U 23060B   26198.71364176 -.00000357  00000+0  00000+0 0  9998
2 56371   2.8502  79.5602 0001135 132.4486  82.3760  1.00593569 11767
GS-1                    
1 56372U 23060C   26198.73055147 -.00000232  00000+0  00000+0 0  9998
2 56372   2.8013  79.4683 0003347 280.0879 288.2420  1.00266048  7849
BEIDOU-3 G4             
1 56564U 23066A   26198.65208052 -.00000290  00000+0  00000+0 0  9997
2 56564   0.4585 339.6548 0004967 185.6260 145.0023  1.00271839 11695
ARABSAT-7B (BADR-8)     
1 56757U 23075A   26198.74055321  .00000135  00000+0  00000+0 0  9997
2 56757   0.0726  29.4253 0003519   1.4232 197.2954  1.00273208 11420
NVS-01 (IRNSS-1J)       
1 56759U 23076A   26198.65000051 -.00000345  00000+0  00000+0 0  9994
2 56759   2.0957 242.9549 0003096  20.1236  35.8052  1.00277422 11420
NUSANTARA TIGA (SATRIA) 
1 57045U 23086A   26198.54697394 -.00000245  00000+0  00000+0 0  9993
2 57045   0.0360  16.4967 0002101 320.1785 301.5827  1.00268024 10061
H2SAT (HEINRICH HERTZ)  
1 57213U 23093A   26198.41057824 -.00000008  00000+0  00000+0 0  9999
2 57213   0.0264 100.9600 0000091 319.8743  22.8857  1.00271511 11218
SYRACUSE 4B             
1 57214U 23093B   26198.62308750 -.00000063  00000+0  00000+0 0  9991
2 57214   0.0189  54.3463 0000248 213.7977 245.1350  1.00271513  7270
JUPITER 3 (ECHOSTAR 24) 
1 57479U 23108A   26198.44421544 -.00000160  00000+0  00000+0 0  9996
2 57479   0.0132  45.1465 0001151  72.7443 242.1003  1.00270503 10955
GALAXY 37 (G-37)        
1 57493U 23112A   26198.59916740  .00000000  00000+0  00000+0 0  9992
2 57493   0.0198  55.8349 0002019  59.5726 268.7145  1.00269990 10840
LUDI TANCE-4 01A        
1 57624U 23120A   26198.00041119 -.00000188  00000+0  00000+0 0  9990
2 57624  15.0852 193.2277 0001504  13.3405 177.9382  1.00275549 10847
TJS-10                  
1 58204U 23169A   26198.78107519 -.00000259  00000+0  00000+0 0  9999
2 58204   2.6215  80.1244 0004089 114.0901 114.9634  1.00273212  9840
ZHONGXING-6E            
1 58253U 23172A   26195.70499280 -.00000370  00000+0  00000+0 0  9999
2 58253   0.0192  86.2131 0002698  23.7417 191.9164  1.00272476  9938
YAOGAN-41               
1 58582U 23197A   26198.69697699 -.00000369  00000+0  00000+0 0  9994
2 58582   3.0739 313.6305 0013918 200.7680 155.1353  1.00276010  9625
OVZON-3                 
1 58698U 24003A   26198.74042294  .00000042  00000+0  00000+0 0  9997
2 58698   0.0145 125.1887 0000049 217.9839 278.6108  1.00272721  7755
INSAT-3DS               
1 58990U 24033A   26198.64059036 -.00000165  00000+0  00000+0 0  9993
2 58990   0.0841 264.3115 0001159 223.5226 120.2950  1.00270812 47377
MERAH PUTIH 2           
1 58995U 24035A   26198.71364176  .00000000  00000+0  00000+0 0  9999
2 58995   0.0142  63.9687 0001079  58.0040 183.4160  1.00265063  8899
TJS-11                  
1 59020U 24037A   26198.77447972 -.00000371  00000+0  00000+0 0  9995
2 59020   4.1594 327.4702 0001902 153.2504 206.2546  1.00272763  8885
HULIANWAN GAOGUI-01 (H*)
1 59069U 24040A   26198.48843404  .00000146  00000+0  00000+0 0  9999
2 59069   0.0747 332.4995 0001971  67.6389 104.6235  1.00272259  7636
EUTELSAT 36D            
1 59346U 24059A   26198.35391950  .00000146  00000+0  00000+0 0  9997
2 59346   0.0180  55.7550 0000116 194.5222 208.1718  1.00270275  8456
PAKSAT-MM1              
1 59915U 24104A   26198.56063470  .00000144  00000+0  00000+0 0  9994
2 59915   0.0296 162.6305 0002054 295.9619  76.7836  1.00272215  7838
ASTRA 1P (SES-24)       
1 60086U 24115A   26198.09836377  .00000109  00000+0  00000+0 0  9990
2 60086   0.0661 332.7796 0000875 228.6583 148.0995  1.00271227  7494
GOES 19                 
1 60133U 24119A   26198.60948078 -.00000258  00000+0  00000+0 0  9992
2 60133   0.0157 138.2353 0000391  61.7008 239.7004  1.00270922  7261
ZHONGXING-3A            
1 60179U 24122A   26198.73284142 -.00000323  00000+0  00000+0 0  9998
2 60179   0.0287 129.6538 0001699  29.6481 141.6545  1.00272939  7614
TURKSAT 6A              
1 60233U 24127A   26198.63261698  .00000000  00000+0  00000+0 0  9995
2 60233   0.0181 190.5287 0003019 336.0695  38.5627  1.00270852  7321
HULIANWAN GAOGUI-02 (H*)
1 60327U 24135A   26198.62267034 -.00000184  00000+0  00000+0 0  9991
2 60327   0.0473 355.3910 0005976  13.7746 303.4613  1.00271454  7804
ZHONGXING-4A            
1 60606U 24151A   26198.70808690 -.00000371  00000+0  00000+0 0  9995
2 60606   1.2367 270.4687 0000195  29.6317   8.5315  1.00274192  7067
HULIANWAN GAOGUI-03 (H*)
1 61503U 24181A   26197.82491916 -.00000251  00000+0  00000+0 0  9993
2 61503   0.0514 357.5720 0001101  95.5770  61.3463  1.00270553  7128
DSN-3 (KIRAMEKI-3)      
1 61733U 24198A   26198.65286051 -.00000259  00000+0  00000+0 0  9998
2 61733   0.0549 253.2616 0001021 243.6167 177.6814  1.00272616  6227
KOREASAT 6A             
1 61910U 24206A   26198.71364176 -.00000371  00000+0  00000+0 0  9992
2 61910   0.0201 102.4979 0000812 354.5478 211.3803  1.00268987  6141
OPTUS-X (ADS-01)        
1 62006U 24212A   26198.58391397  .00000000  00000+0  00000+0 0  9994
2 62006   0.0180  44.1588 0002241  91.1294 166.7400  1.00270830  6067
GSAT-N2 (GSAT-20)       
1 62028U 24214A   26198.63781700 -.00000028  00000+0  00000+0 0  9998
2 62028   0.0673 261.3657 0002666 146.6310 184.9955  1.00271684  6205
SXM-9                   
1 62259U 24234A   26198.60748743 -.00000214  00000+0  00000+0 0  9990
2 62259   0.0189 335.7921 0005027 344.9827 108.1674  1.00270433  5872
TJS-12                  
1 62374U 24246A   26198.62822508 -.00000241  00000+0  00000+0 0  9995
2 62374   0.6061 302.4038 0001839  99.5752 266.1229  1.00268584  5866
NUVIEW ALPHA            
1 62455U 24252B   26198.53662793 -.00000225  00000+0  00000+0 0  9992
2 62455   0.0416  23.4267 0001136  65.3416 316.6684  1.00272147  4120
AGILA                   
1 62456U 24252C   26198.54628293 -.00000191  00000+0  00000+0 0  9993
2 62456   0.0402 167.4535 0001364 311.8634 164.8687  1.00272265  5462
NUVIEW BRAVO            
1 62457U 24252D   26198.50461610 -.00000225  00000+0  00000+0 0  9996
2 62457   0.0686 165.3094 0001622 339.8163 248.7428  1.00271528  4092
THURAYA-4               
1 62483U 25001A   26198.41915829  .00000129  00000+0  00000+0 0  9996
2 62483   0.0234  75.1729 0000287 131.2549 284.0149  1.00271794  4482
SHIJIAN-25 (SJ-25)      
1 62485U 25002A   26198.43563727 -.00000363  00000+0  00000+0 0  9998
2 62485   5.1835  60.9728 0052090 175.5540 342.6094  1.00261349  5665
TJS-14                  
1 62804U 25017A   26198.67351666  .00000106  00000+0  00000+0 0  9996
2 62804   0.7152 297.9605 0001992 307.4338 310.9487  1.00268295  5576
